[{"OBJECT_NAME":"STARLINK-5263","OBJECT_ID":"2022-141AN","EPOCH":"2026-03-09T22:19:50.381472","MEAN_MOTION":15.08851171,"ECCENTRICITY":0.00014326,"INCLINATION":53.2179,"RA_OF_ASC_NODE":353.0825,"ARG_OF_PERICENTER":112.1465,"MEAN_ANOMALY":247.9679,"EPHEMERIS_TYPE":0,"CLASSIFICATION_TYPE":"U","NORAD_CAT_ID":54193,"ELEMENT_SET_NO":999,"REV_AT_EPOCH":18603,"BSTAR":0.0005772112,"MEAN_MOTION_DOT":8.913e-5,"MEAN_MOTION_DDOT":0},{"OBJECT_NAME":"COSMOS 249 DEB","OBJECT_ID":"1968-091BY","EPOCH":"2026-03-09T15:02:10.681728","MEAN_MOTION":13.99350738,"ECCENTRICITY":0.050522,"INCLINATION":62.8493,"RA_OF_ASC_NODE":140.5745,"ARG_OF_PERICENTER":190.7995,"MEAN_ANOMALY":168.1879,"EPHEMERIS_TYPE":0,"CLASSIFICATION_TYPE":"U","NORAD_CAT_ID":4008,"ELEMENT_SET_NO":999,"REV_AT_EPOCH":82676,"BSTAR":0.00082652,"MEAN_MOTION_DOT":3.549e-5,"MEAN_MOTION_DDOT":0}]
